NORAD_CAT_ID,OBJECT_NAME,OBJECT_TYPE,EPOCH,MEAN_MOTION,ECCENTRICITY,INCLINATION,RA_OF_ASC_NODE,ARG_OF_PERICENTER,MEAN_ANOMALY,BSTAR,MEAN_MOTION_DOT,MEAN_MOTION_DDOT,TLE_LINE0,TLE_LINE1,TLE_LINE2,SEMIMAJOR_AXIS,PERIOD,APOGEE,PERIGEE,DECAYED
56479.0,STARLINK-6044,PAYLOAD,2024-04-21 22:24:05,14.983418,0.0002306,70.0008,55.8614,262.4077,97.682,-0.00021228,-2.626e-05,0.0,0 STARLINK-6044,1 56479U 23064AH  24112.93340061 -.00002626  00000-0 -21228-3 0  9998,2 56479  70.0008  55.8614 0002306 262.4077  97.6820 14.98341800 52878,6950.156,96.106,573.624,570.419,0.0
56479.0,STARLINK-6044,PAYLOAD,2024-04-22 04:48:37,14.98346186,0.0002028,70.0032,55.1869,210.534,149.5701,9.4939e-06,2.1e-07,0.0,0 STARLINK-6044,1 56479U 23064AH  24113.20042860  .00000021  00000-0  94939-5 0  9991,2 56479  70.0032  55.1869 0002028 210.5340 149.5701 14.98346186 53270,6950.143,96.106,573.417,570.598,0.0
56479.0,STARLINK-6044,PAYLOAD,2024-04-22 06:24:44,14.98356947,0.0002475,70.0014,55.0214,235.7617,124.3308,-1.5186e-05,-2.74e-06,0.0,0 STARLINK-6044,1 56479U 23064AH  24113.26718106 -.00000274  00000-0 -15186-4 0  9998,2 56479  70.0014  55.0214 0002475 235.7617 124.3308 14.98356947 53286,6950.11,96.105,573.695,570.254,0.0
56479.0,STARLINK-6044,PAYLOAD,2024-04-22 20:49:58,14.98314384,0.0002738,70.0042,53.5089,204.1689,155.9342,0.00038487,4.5e-05,0.0,0 STARLINK-6044,1 56479U 23064AH  24113.86803642  .00004500  00000-0  38487-3 0  9996,2 56479  70.0042  53.5089 0002738 204.1689 155.9342 14.98314384 53378,6950.241,96.108,574.009,570.203,0.0
56479.0,STARLINK-6044,PAYLOAD,2024-04-22 22:26:06,14.98313905,0.0003059,70.004,53.3412,204.6,155.5013,0.00035733,4.171e-05,0.0,0 STARLINK-6044,1 56479U 23064AH  24113.93479757  .00004171  00000-0  35733-3 0  9995,2 56479  70.0040  53.3412 0003059 204.6000 155.5013 14.98313905 53024,6950.243,96.108,574.234,569.982,0.0
56479.0,STARLINK-6044,PAYLOAD,2024-04-23 06:26:46,14.98320854,0.0002518,70.001,52.4936,247.4413,112.648,0.00035302,4.121e-05,0.0,0 STARLINK-6044,1 56479U 23064AH  24114.26859608  .00004121  00000-0  35302-3 0  9996,2 56479  70.0010  52.4936 0002518 247.4413 112.6480 14.98320854 53072,6950.221,96.108,573.836,570.336,0.0
56479.0,STARLINK-6044,PAYLOAD,2024-04-23 20:51:59,14.98339994,0.0002256,70.0018,50.9778,233.319,126.7762,-5.1728e-05,-7.1e-06,0.0,0 STARLINK-6044,1 56479U 23064AH  24114.86943497 -.00000710  00000-0 -51728-4 0  9995,2 56479  70.0018  50.9778 0002256 233.3190 126.7762 14.98339994 53526,6950.162,96.106,573.595,570.459,0.0
56479.0,STARLINK-6044,PAYLOAD,2024-04-23 22:28:07,14.98340451,0.0002414,70.0017,50.8094,242.5569,117.5345,-8.3912e-05,-1.094e-05,0.0,0 STARLINK-6044,1 56479U 23064AH  24114.93619520 -.00001094  00000-0 -83912-4 0  9996,2 56479  70.0017  50.8094 0002414 242.5569 117.5345 14.98340451 53179,6950.161,96.106,573.703,570.348,0.0
56479.0,STARLINK-6044,PAYLOAD,2024-04-24 03:16:30,14.98348413,0.0002657,70.0027,50.3066,211.2633,148.8368,5.3603e-05,5.47e-06,0.0,0 STARLINK-6044,1 56479U 23064AH  24115.13646402  .00000547  00000-0  53603-4 0  9992,2 56479  70.0027  50.3066 0002657 211.2633 148.8368 14.98348413 53569,6950.136,96.106,573.848,570.154,0.0
56479.0,STARLINK-6044,PAYLOAD,2024-04-24 20:53:57,14.98357511,0.000268,70.0014,48.4544,228.7369,131.356,0.00021311,2.452e-05,0.0,0 STARLINK-6044,1 56479U 23064AH  24115.87080156  .00002452  00000-0  21311-3 0  9998,2 56479  70.0014  48.4544 0002680 228.7369 131.3560 14.98357511 53671,6950.108,96.105,573.835,570.11,0.0
56479.0,STARLINK-6044,PAYLOAD,2024-04-24 22:30:05,14.98357555,0.0002745,70.0012,48.2874,227.4287,132.664,0.00019203,2.201e-05,0.0,0 STARLINK-6044,1 56479U 23064AH  24115.93756093  .00002201  00000-0  19203-3 0  9994,2 56479  70.0012  48.2874 0002745 227.4287 132.6640 14.98357555 53323,6950.108,96.105,573.88,570.065,0.0
56479.0,STARLINK-6044,PAYLOAD,2024-04-25 04:54:38,14.98343079,0.0002482,70.0022,47.6145,238.6943,121.3973,6.279e-05,6.57e-06,0.0,0 STARLINK-6044,1 56479U 23064AH  24116.20461017  .00000657  00000-0  62790-4 0  9997,2 56479  70.0022  47.6145 0002482 238.6943 121.3973 14.98343079 53723,6950.152,96.106,573.742,570.292,0.0
56479.0,STARLINK-6044,PAYLOAD,2024-04-25 20:56:00,14.98321423,0.000293,70.0069,45.9383,193.6419,166.4661,-0.00014153,-1.781e-05,0.0,0 STARLINK-6044,1 56479U 23064AH  24116.87223000 -.00001781  00000-0 -14153-3 0  9998,2 56479  70.0069  45.9383 0002930 193.6419 166.4661 14.98321423 53829,6950.219,96.108,574.121,570.048,0.0
56479.0,STARLINK-6044,PAYLOAD,2024-04-25 22:32:08,14.98350002,0.0002926,70.0062,45.7743,205.107,154.9947,-0.00064457,-7.779e-05,0.0,0 STARLINK-6044,1 56479U 23064AH  24116.93898785 -.00007779  00000-0 -64457-3 0  9998,2 56479  70.0062  45.7743 0002926 205.1070 154.9947 14.98350002 53472,6950.131,96.106,574.03,569.962,0.0
56479.0,STARLINK-6044,PAYLOAD,2024-04-26 04:56:41,14.98320191,0.0002606,70.0012,45.0886,249.8831,110.2048,-0.00030574,-3.738e-05,0.0,0 STARLINK-6044,1 56479U 23064AH  24117.20603667 -.00003738  00000-0 -30574-3 0  9996,2 56479  70.0012  45.0886 0002606 249.8831 110.2048 14.98320191 53870,6950.223,96.108,573.899,570.277,0.0
56479.0,STARLINK-6044,PAYLOAD,2024-04-26 12:57:21,14.98329727,0.0002708,70.0006,44.2456,261.5001,98.5851,-0.00032656,-3.987e-05,0.0,0 STARLINK-6044,1 56479U 23064AH  24117.53983193 -.00003987  00000-0 -32656-3 0  9996,2 56479  70.0006  44.2456 0002708 261.5001  98.5851 14.98329727 53920,6950.194,96.107,573.941,570.177,0.0
56479.0,STARLINK-6044,PAYLOAD,2024-04-26 14:33:28,14.98353478,0.000257,70.0005,44.0789,283.8159,76.2714,-0.00067594,-8.153e-05,0.0,0 STARLINK-6044,1 56479U 23064AH  24117.60658428 -.00008153  00000-0 -67594-3 0  9993,2 56479  70.0005  44.0789 0002570 283.8159  76.2714 14.98353478 53576,6950.12,96.105,573.771,570.199,0.0
56479.0,STARLINK-6044,PAYLOAD,2024-04-26 19:21:53,14.98330662,0.0003017,70.0004,43.5732,269.5892,90.4921,-7.5257e-05,-9.91e-06,0.0,0 STARLINK-6044,1 56479U 23064AH  24117.80686403 -.00000991  00000-0 -75257-4 0  9997,2 56479  70.0004  43.5732 0003017 269.5892  90.4921 14.98330662 53960,6950.191,96.107,574.153,569.959,0.0
56479.0,STARLINK-6044,PAYLOAD,2024-04-26 20:58:00,14.98331515,0.0002941,70.0007,43.4046,269.0488,91.0334,-3.5099e-05,-5.12e-06,0.0,0 STARLINK-6044,1 56479U 23064AH  24117.87362240 -.00000512  00000-0 -35099-4 0  9993,2 56479  70.0007  43.4046 0002941 269.0488  91.0334 14.98331515 53616,6950.188,96.107,574.097,570.009,0.0
56479.0,STARLINK-6044,PAYLOAD,2024-04-27 03:22:32,14.98344116,0.0002916,70.0005,42.731,269.659,90.4235,9.1678e-05,1.001e-05,0.0,0 STARLINK-6044,1 56479U 23064AH  24118.14065077  .00001001  00000-0  91678-4 0  9999,2 56479  70.0005  42.7310 0002916 269.6590  90.4235 14.98344116 54011,6950.149,96.106,574.041,569.988,0.0
56479.0,STARLINK-6044,PAYLOAD,2024-04-27 04:58:40,14.98346546,0.0002877,70.0006,42.5627,269.049,91.034,0.00012628,1.415e-05,0.0,0 STARLINK-6044,1 56479U 23064AH  24118.20740799  .00001415  00000-0  12628-3 0  9993,2 56479  70.0006  42.5627 0002877 269.0490  91.0340 14.98346546 53663,6950.142,96.106,574.006,570.007,0.0
56479.0,STARLINK-6044,PAYLOAD,2024-04-27 21:00:02,14.98312081,0.0002405,70.0038,40.885,228.8464,131.2488,0.00022042,2.537e-05,0.0,0 STARLINK-6044,1 56479U 23064AH  24118.87502894  .00002537  00000-0  22042-3 0  9995,2 56479  70.0038  40.8850 0002405 228.8464 131.2488 14.98312081 54127,6950.248,96.108,573.785,570.442,0.0
56479.0,STARLINK-6044,PAYLOAD,2024-04-27 22:36:10,14.98311529,0.0002415,70.0037,40.717,231.6617,128.4325,0.00019873,2.278e-05,0.0,0 STARLINK-6044,1 56479U 23064AH  24118.94179080  .00002278  00000-0  19873-3 0  9990,2 56479  70.0037  40.7170 0002415 231.6617 128.4325 14.98311529 53777,6950.25,96.108,573.793,570.437,0.0
56479.0,STARLINK-6044,PAYLOAD,2024-04-28 03:24:35,14.98308908,0.0003118,70.0009,40.208,271.0634,89.0168,0.00017482,1.992e-05,0.0,0 STARLINK-6044,1 56479U 23064AH  24119.14207589  .00001992  00000-0  17482-3 0  9995,2 56479  70.0009  40.2080 0003118 271.0634  89.0168 14.98308908 54167,6950.258,96.108,574.29,569.956,0.0
56479.0,STARLINK-6044,PAYLOAD,2024-04-28 11:25:15,14.98318483,0.0002831,70.0013,39.3664,263.7773,96.3063,4.6842e-05,4.66e-06,0.0,0 STARLINK-6044,1 56479U 23064AH  24119.47587631  .00000466  00000-0  46842-4 0  9998,2 56479  70.0013  39.3664 0002831 263.7773  96.3063 14.98318483 54212,6950.229,96.108,574.061,570.126,0.0
56479.0,STARLINK-6044,PAYLOAD,2024-04-28 22:38:11,14.98327447,0.0003065,70.001,38.1868,271.1887,88.8921,8.013e-06,3e-08,0.0,0 STARLINK-6044,1 56479U 23064AH  24119.94319310  .00000003  00000-0  80130-5 0  9993,2 56479  70.0010  38.1868 0003065 271.1887  88.8921 14.98327447 53927,6950.201,96.107,574.196,569.936,0.0
56479.0,STARLINK-6044,PAYLOAD,2024-04-29 05:02:43,14.98336007,0.000292,70.0009,37.5145,266.9289,93.1535,-2.3529e-05,-3.74e-06,0.0,0 STARLINK-6044,1 56479U 23064AH  24120.21022800 -.00000374  00000-0 -23529-4 0  9991,2 56479  70.0009  37.5145 0002920 266.9289  93.1535 14.98336007 54320,6950.174,96.107,574.069,570.01,0.0
56479.0,STARLINK-6044,PAYLOAD,2024-04-29 11:27:15,14.98338252,0.000295,70.001,36.8411,267.9421,92.14,-6.4646e-05,-8.64e-06,0.0,0 STARLINK-6044,1 56479U 23064AH  24120.47726667 -.00000864  00000-0 -64646-4 0  9990,2 56479  70.0010  36.8411 0002950 267.9421  92.1400 14.98338252 54001,6950.167,96.106,574.083,569.982,0.0
56479.0,STARLINK-6044,PAYLOAD,2024-04-29 22:40:12,14.98329549,0.0003115,70.001,35.6626,267.7477,92.3325,0.00011649,1.297e-05,0.0,0 STARLINK-6044,1 56479U 23064AH  24120.94458699  .00001297  00000-0  11649-3 0  9992,2 56479  70.0010  35.6626 0003115 267.7477  92.3325 14.98329549 54073,6950.194,96.107,574.224,569.894,0.0
56479.0,STARLINK-6044,PAYLOAD,2024-04-30 11:29:16,14.98332362,0.0003121,70.0009,34.3163,268.8808,91.1994,5.1868e-05,5.26e-06,0.0,0 STARLINK-6044,1 56479U 23064AH  24121.47866634  .00000526  00000-0  51868-4 0  9995,2 56479  70.0009  34.3163 0003121 268.8808  91.1994 14.98332362 54515,6950.186,96.107,574.22,569.881,0.0
